{
  "norad_id": 59922,
  "name": "STARLINK-31872",
  "history": [
    {
      "epoch": "2026-03-28T17:57:25.403616Z",
      "apogee_km": 483.78269444702164,
      "perigee_km": 482.26157546680224,
      "latitude_deg": 1.396173173039571e-05,
      "longitude_deg": 129.70496051547772,
      "height_km": 482.846002669095,
      "semi_major_axis_km": 6861.159134956912,
      "eccentricity": 0.00011085,
      "inclination_deg": 42.9977,
      "raan_deg": 225.225,
      "arg_perigee_deg": 266.4057,
      "mean_anomaly_deg": 93.6668,
      "mean_motion_rev_day": 15.27589004
    }
  ]
}